[{"OBJECT_NAME":"UNIFORM 1","OBJECT_ID":"2014-029B","EPOCH":"2026-03-09T20:40:30.377280","MEAN_MOTION":14.95353458,"ECCENTRICITY":0.00039155,"INCLINATION":97.8,"RA_OF_ASC_NODE":166.6615,"ARG_OF_PERICENTER":280.7355,"MEAN_ANOMALY":79.3425,"EPHEMERIS_TYPE":0,"CLASSIFICATION_TYPE":"U","NORAD_CAT_ID":39767,"ELEMENT_SET_NO":999,"REV_AT_EPOCH":63937,"BSTAR":0.00032279385,"MEAN_MOTION_DOT":3.504e-5,"MEAN_MOTION_DDOT":0},{"OBJECT_NAME":"STARLINK-32933","OBJECT_ID":"2025-037F","EPOCH":"2026-03-09T21:39:59.933664","MEAN_MOTION":14.96392117,"ECCENTRICITY":0.00092861,"INCLINATION":70.0032,"RA_OF_ASC_NODE":353.9289,"ARG_OF_PERICENTER":34.0128,"MEAN_ANOMALY":326.1623,"EPHEMERIS_TYPE":0,"CLASSIFICATION_TYPE":"U","NORAD_CAT_ID":63082,"ELEMENT_SET_NO":999,"REV_AT_EPOCH":5857,"BSTAR":-0.11736872,"MEAN_MOTION_DOT":-0.01234595,"MEAN_MOTION_DDOT":0}]
